CCSDS_OEM_VERS = 1.0
CREATION_DATE  = 2017-05-11T11:38:27
ORIGINATOR     = GMAT USER

META_START
OBJECT_NAME          = MOPSSat_alt_35785_km_RAAN_180_101
OBJECT_ID            = SatId
CENTER_NAME          = Earth
REF_FRAME            = EME2000
TIME_SYSTEM          = UTC
START_TIME           = 2017-01-01T00:00:00.000
USEABLE_START_TIME   = 2017-01-01T00:00:00.000
USEABLE_STOP_TIME    = 2017-01-02T00:00:00.000
STOP_TIME            = 2017-01-02T00:00:00.000
INTERPOLATION        = Lagrange
INTERPOLATION_DEGREE = 7 
META_STOP


                                                                                   

2017-01-01T23:50:00.000  -3.792763484224692e+04   1.221404233618664e+03  -1.924552063910428e+01  -9.939056633023662e-02  -3.397234555495134e+00   5.942948249183615e-02
2017-01-01T23:50:10.000  -3.792861491406308e+04   1.187431447253929e+03  -1.865121877192599e+01  -9.662378308626751e-02  -3.397322369417029e+00   5.943088485092249e-02
2017-01-01T23:50:20.000  -3.792956731757633e+04   1.153457795442417e+03  -1.805690310332812e+01  -9.385690799643261e-02  -3.397407705715241e+00   5.943224384051323e-02
2017-01-01T23:50:30.000  -3.793049205188897e+04   1.119483302694302e+03  -1.746257406235065e+01  -9.108994366148451e-02  -3.397490564271866e+00   5.943355945866333e-02
2017-01-01T23:50:40.000  -3.793138911613270e+04   1.085507993425386e+03  -1.686823207638147e+01  -8.832289267458823e-02  -3.397570944972719e+00   5.943483170349251e-02
2017-01-01T23:50:50.000  -3.793225850945326e+04   1.051531892396973e+03  -1.627387757885147e+01  -8.555575765714021e-02  -3.397648847705949e+00   5.943606057316266e-02
2017-01-01T23:51:00.000  -3.793310023102292e+04   1.017555024389269e+03  -1.567951100352092e+01  -8.278854123216872e-02  -3.397724272363166e+00   5.943724606589637e-02
2017-01-01T23:51:10.000  -3.793391428003892e+04   9.835774142013030e+02  -1.508513278447824e+01  -8.002124602432366e-02  -3.397797218839301e+00   5.943838817997443e-02
2017-01-01T23:51:20.000  -3.793470065571937e+04   9.495990869776956e+02  -1.449074336185604e+01  -7.725387468648981e-02  -3.397867687032237e+00   5.943948691373072e-02
2017-01-01T23:51:30.000  -3.793545935731034e+04   9.156200677684844e+02  -1.389634317413121e+01  -7.448642986393150e-02  -3.397935676843440e+00   5.944054226556131e-02
2017-01-01T23:51:40.000  -3.793619038408249e+04   8.816403817024639e+02  -1.330193266115712e+01  -7.171891420840834e-02  -3.398001188177666e+00   5.944155423392035e-02
2017-01-01T23:51:50.000  -3.793689373534788e+04   8.476600532203529e+02  -1.270751225074940e+01  -6.895133031571629e-02  -3.398064220944463e+00   5.944252281734303e-02
2017-01-01T23:52:00.000  -3.793756941044295e+04   8.136791068415532e+02  -1.211308237209888e+01  -6.618368078813465e-02  -3.398124775056646e+00   5.944344801442203e-02
2017-01-01T23:52:10.000  -3.793821740873288e+04   7.796975669907637e+02  -1.151864345273854e+01  -6.341596822030157e-02  -3.398182850430683e+00   5.944432982381374e-02
2017-01-01T23:52:20.000  -3.793883772959938e+04   7.457154584379665e+02  -1.092419592624035e+01  -6.064819523504517e-02  -3.398238446985616e+00   5.944516824422078e-02
2017-01-01T23:52:30.000  -3.793943037245086e+04   7.117328059717314e+02  -1.032974022650022e+01  -5.788036445677396e-02  -3.398291564643952e+00   5.944596327440670e-02
2017-01-01T23:52:40.000  -3.793999533672084e+04   6.777496343991522e+02  -9.735276787736932e+00  -5.511247851146817e-02  -3.398342203331541e+00   5.944671491319340e-02
2017-01-01T23:52:50.000  -3.794053262186630e+04   6.437659688726401e+02  -9.140806050208553e+00  -5.234454005329556e-02  -3.398390362977411e+00   5.944742315945992e-02
2017-01-01T23:53:00.000  -3.794104222737136e+04   6.097818344497008e+02  -8.546328452511801e+00  -4.957655172875117e-02  -3.398436043514108e+00   5.944808801214657e-02
2017-01-01T23:53:10.000  -3.794152415274543e+04   5.757972562695940e+02  -7.951844434672293e+00  -4.680851619104362e-02  -3.398479244877531e+00   5.944870947025255e-02
2017-01-01T23:53:20.000  -3.794197839753425e+04   5.418122587735402e+02  -7.357354424503840e+00  -4.404043603657835e-02  -3.398519967007913e+00   5.944928753285019e-02
2017-01-01T23:53:30.000  -3.794240496130855e+04   5.078268664864167e+02  -6.762858851282433e+00  -4.127231386862348e-02  -3.398558209848809e+00   5.944982219907035e-02
2017-01-01T23:53:40.000  -3.794280384366718e+04   4.738411038149347e+02  -6.168358142215814e+00  -3.850415228086868e-02  -3.398593973347387e+00   5.945031346810656e-02
2017-01-01T23:53:50.000  -3.794317504422768e+04   4.398549955902210e+02  -5.573852731934801e+00  -3.573595390161493e-02  -3.398627257453566e+00   5.945076133920225e-02
2017-01-01T23:54:00.000  -3.794351856263464e+04   4.058685666200141e+02  -4.979343054659887e+00  -3.296772135729867e-02  -3.398658062120774e+00   5.945116581166218e-02
2017-01-01T23:54:10.000  -3.794383439855762e+04   3.718818417918646e+02  -4.384829546006499e+00  -3.019945728089443e-02  -3.398686387305760e+00   5.945152688484955e-02
2017-01-01T23:54:20.000  -3.794412255169355e+04   3.378948460331152e+02  -3.790312642284861e+00  -2.743116430865302e-02  -3.398712232968816e+00   5.945184455818976e-02
2017-01-01T23:54:30.000  -3.794438302176540e+04   3.039076042918213e+02  -3.195792780166330e+00  -2.466284507854396e-02  -3.398735599073641e+00   5.945211883116788e-02
2017-01-01T23:54:40.000  -3.794461580852242e+04   2.699201414960472e+02  -2.601270395971380e+00  -2.189450222693734e-02  -3.398756485587386e+00   5.945234970332931e-02
2017-01-01T23:54:50.000  -3.794482091174192e+04   2.359324825348162e+02  -2.006745925336285e+00  -1.912613838704940e-02  -3.398774892480789e+00   5.945253717428214e-02
2017-01-01T23:55:00.000  -3.794499833122762e+04   2.019446522180526e+02  -1.412219802512522e+00  -1.635775618567671e-02  -3.398790819728043e+00   5.945268124369460e-02
2017-01-01T23:55:10.000  -3.794514806680974e+04   1.679566753798031e+02  -8.176924621722994e-01  -1.358935825160092e-02  -3.398804267306807e+00   5.945278191129567e-02
2017-01-01T23:55:20.000  -3.794527011834450e+04   1.339685764303473e+02  -2.231643315740898e-01  -1.082094717910395e-02  -3.398815235198146e+00   5.945283917687222e-02
2017-01-01T23:55:30.000  -3.794536448571418e+04   9.998037989887244e+01   3.713641599448911e-01  -8.052525572167539e-03  -3.398823723386548e+00   5.945285304027165e-02
2017-01-01T23:55:40.000  -3.794543116882748e+04   6.599211022832810e+01   9.658925845570990e-01  -5.284096027760728e-03  -3.398829731859954e+00   5.945282350140127e-02
2017-01-01T23:55:50.000  -3.794547016761763e+04   3.200379257005493e+01   1.560420502044885e+00  -2.515661200561563e-03  -3.398833260609588e+00   5.945275056022882e-02
2017-01-01T23:56:00.000  -3.794548148204446e+04  -1.984548010912141e+00   2.154947473701475e+00   2.527762617758835e-04  -3.398834309630139e+00   5.945263421678227e-02
2017-01-01T23:56:10.000  -3.794546511209361e+04  -3.597288633076921e+01   2.749473058743757e+00   3.021213701920532e-03  -3.398832878919693e+00   5.945247447114954e-02
2017-01-01T23:56:20.000  -3.794542105777934e+04  -6.996119762967828e+01   3.343996823805977e+00   5.789648497074295e-03  -3.398828968479992e+00   5.945227132348077e-02
2017-01-01T23:56:30.000  -3.794534931914171e+04  -1.039494571239563e+02   3.938518335106456e+00   8.558078022499610e-03  -3.398822578316167e+00   5.945202477398571e-02
2017-01-01T23:56:40.000  -3.794524989624735e+04  -1.379376401093622e+02   4.533037160254335e+00   1.132649965993528e-02  -3.398813708436818e+00   5.945173482293433e-02
2017-01-01T23:56:50.000  -3.794512278918743e+04  -1.719257219211177e+02   5.127552867550158e+00   1.409491079434304e-02  -3.398802358853833e+00   5.945140147065409e-02
2017-01-01T23:57:00.000  -3.794496799807954e+04  -2.059136779149169e+02   5.722065025653778e+00   1.686330881236347e-02  -3.398788529582544e+00   5.945102471753256e-02
2017-01-01T23:57:10.000  -3.794478552306761e+04  -2.399014834262900e+02   6.316573202873552e+00   1.963169109900911e-02  -3.398772220641732e+00   5.945060456401791e-02
2017-01-01T23:57:20.000  -3.794457536432056e+04  -2.738891137516001e+02   6.911076966833850e+00   2.240005503611902e-02  -3.398753432053503e+00   5.945014101061652e-02
2017-01-01T23:57:30.000  -3.794433752203441e+04  -3.078765441080804e+02   7.505575883776149e+00   2.516839799910709e-02  -3.398732163843475e+00   5.944963405789660e-02
2017-01-01T23:57:40.000  -3.794407199643080e+04  -3.418637497371122e+02   8.100069520365505e+00   2.793671736537691e-02  -3.398708416040646e+00   5.944908370648541e-02
2017-01-01T23:57:50.000  -3.794377878776318e+04  -3.758507054564516e+02   8.694557435858336e+00   3.070501047785321e-02  -3.398682188677945e+00   5.944848995708080e-02
2017-01-01T23:58:00.000  -3.794345789630992e+04  -4.098373862029234e+02   9.289039191594986e+00   3.347327468918761e-02  -3.398653481791627e+00   5.944785281043818e-02
2017-01-01T23:58:10.000  -3.794310932237653e+04  -4.438237668306522e+02   9.883514347470429e+00   3.624150734532727e-02  -3.398622295421454e+00   5.944717226737476e-02
2017-01-01T23:58:20.000  -3.794273306628798e+04  -4.778098228928771e+02   1.047798247560949e+01   3.900970584919753e-02  -3.398588629610022e+00   5.944644832875469e-02
2017-01-01T23:58:30.000  -3.794232912839616e+04  -5.117955298621786e+02   1.107244314672731e+01   4.177786759719126e-02  -3.398552484403424e+00   5.944568099550342e-02
2017-01-01T23:58:40.000  -3.794189750907886e+04  -5.457808632182837e+02   1.166689593166526e+01   4.454598998632339e-02  -3.398513859851156e+00   5.944487026860609e-02
2017-01-01T23:58:50.000  -3.794143820874076e+04  -5.797657983547309e+02   1.226134039975830e+01   4.731407040663162e-02  -3.398472756006202e+00   5.944401614910926e-02
2017-01-01T23:59:00.000  -3.794095122781407e+04  -6.137503105055449e+02   1.285577611755247e+01   5.008210623520677e-02  -3.398429172925111e+00   5.944311863812239e-02
